[
  {
    "OBJECT_NAME": "STARLINK-11258 [DTC]",
    "OBJECT_ID": "25008M",
    "EPOCH": "2025-11-11T03:51:08.605728",
    "MEAN_MOTION": 15.70941906,
    "ECCENTRICITY": 9.38e-05,
    "INCLINATION": 42.9991,
    "RA_OF_ASC_NODE": 120.5306,
    "ARG_OF_PERICENTER": 327.6869,
    "MEAN_ANOMALY": 32.3941,
    "EPHEMERIS_TYPE": 0,
    "CLASSIFICATION_TYPE": "U",
    "NORAD_CAT_ID": 62598,
    "ELEMENT_SET_NO": 999,
    "REV_AT_EPOCH": 4864,
    "BSTAR": 0.0028421999999999996,
    "MEAN_MOTION_DOT": 0.00383217,
    "MEAN_MOTION_DDOT": 0.0,
    "TLE_LINE1": "1 62598U 25008M   25315.16051627  .00383217  00000+0  28422-2 0  9992",
    "TLE_LINE2": "2 62598  42.9991 120.5306 0000938 327.6869  32.3941 15.70941906 48640",
    "COMMENT": "Grouped by shell and plane from TLE"
  },
  {
    "OBJECT_NAME": "STARLINK-11529 [DTC]",
    "OBJECT_ID": "25008N",
    "EPOCH": "2025-11-11T03:58:47.389728",
    "MEAN_MOTION": 15.70924121,
    "ECCENTRICITY": 9.82e-05,
    "INCLINATION": 42.9991,
    "RA_OF_ASC_NODE": 120.5733,
    "ARG_OF_PERICENTER": 333.3976,
    "MEAN_ANOMALY": 26.6841,
    "EPHEMERIS_TYPE": 0,
    "CLASSIFICATION_TYPE": "U",
    "NORAD_CAT_ID": 62599,
    "ELEMENT_SET_NO": 999,
    "REV_AT_EPOCH": 4865,
    "BSTAR": 0.0026716,
    "MEAN_MOTION_DOT": 0.00358849,
    "MEAN_MOTION_DDOT": 0.0,
    "TLE_LINE1": "1 62599U 25008N   25315.16582627  .00358849  00000+0  26716-2 0  9999",
    "TLE_LINE2": "2 62599  42.9991 120.5733 0000982 333.3976  26.6841 15.70924121 48653",
    "COMMENT": "Grouped by shell and plane from TLE"
  },
  {
    "OBJECT_NAME": "STARLINK-35537",
    "OBJECT_ID": "25245A",
    "EPOCH": "2025-11-11T06:00:02.000160",
    "MEAN_MOTION": 15.80350728,
    "ECCENTRICITY": 7.52e-05,
    "INCLINATION": 53.1529,
    "RA_OF_ASC_NODE": 120.1236,
    "ARG_OF_PERICENTER": 67.1278,
    "MEAN_ANOMALY": 76.8255,
    "EPHEMERIS_TYPE": 0,
    "CLASSIFICATION_TYPE": "U",
    "NORAD_CAT_ID": 66234,
    "ELEMENT_SET_NO": 999,
    "REV_AT_EPOCH": 304,
    "BSTAR": 0.0,
    "MEAN_MOTION_DOT": -0.01176749,
    "MEAN_MOTION_DDOT": 0.0,
    "TLE_LINE1": "1 66234U 25245A   25315.25002315 -.01176749  00000+0 -68536-2 0  9999",
    "TLE_LINE2": "2 66234  53.1529 120.1236 0000752  67.1278  76.8255 15.80350728  3047",
    "COMMENT": "Grouped by shell and plane from TLE"
  },
  {
    "OBJECT_NAME": "STARLINK-35541",
    "OBJECT_ID": "25245B",
    "EPOCH": "2025-11-11T06:00:02.000160",
    "MEAN_MOTION": 15.80339051,
    "ECCENTRICITY": 7.06e-05,
    "INCLINATION": 53.1525,
    "RA_OF_ASC_NODE": 120.1187,
    "ARG_OF_PERICENTER": 63.9114,
    "MEAN_ANOMALY": 82.2606,
    "EPHEMERIS_TYPE": 0,
    "CLASSIFICATION_TYPE": "U",
    "NORAD_CAT_ID": 66235,
    "ELEMENT_SET_NO": 999,
    "REV_AT_EPOCH": 299,
    "BSTAR": 0.0,
    "MEAN_MOTION_DOT": -0.01182001,
    "MEAN_MOTION_DDOT": 0.0,
    "TLE_LINE1": "1 66235U 25245B   25315.25002315 -.01182001  00000+0 -68918-2 0  9992",
    "TLE_LINE2": "2 66235  53.1525 120.1187 0000706  63.9114  82.2606 15.80339051  2991",
    "COMMENT": "Grouped by shell and plane from TLE"
  },
  {
    "OBJECT_NAME": "STARLINK-35454",
    "OBJECT_ID": "25245C",
    "EPOCH": "2025-11-11T06:00:02.000160",
    "MEAN_MOTION": 15.80323014,
    "ECCENTRICITY": 8.26e-05,
    "INCLINATION": 53.1525,
    "RA_OF_ASC_NODE": 120.1137,
    "ARG_OF_PERICENTER": 66.4521,
    "MEAN_ANOMALY": 81.967,
    "EPHEMERIS_TYPE": 0,
    "CLASSIFICATION_TYPE": "U",
    "NORAD_CAT_ID": 66236,
    "ELEMENT_SET_NO": 999,
    "REV_AT_EPOCH": 288,
    "BSTAR": 0.0,
    "MEAN_MOTION_DOT": -0.01187777,
    "MEAN_MOTION_DDOT": 0.0,
    "TLE_LINE1": "1 66236U 25245C   25315.25002315 -.01187777  00000+0 -69344-2 0  9992",
    "TLE_LINE2": "2 66236  53.1525 120.1137 0000826  66.4521  81.9670 15.80323014  2887",
    "COMMENT": "Grouped by shell and plane from TLE"
  },
  {
    "OBJECT_NAME": "STARLINK-35557",
    "OBJECT_ID": "25245D",
    "EPOCH": "2025-11-11T06:00:02.000160",
    "MEAN_MOTION": 15.80290316,
    "ECCENTRICITY": 8.09e-05,
    "INCLINATION": 53.1526,
    "RA_OF_ASC_NODE": 120.1083,
    "ARG_OF_PERICENTER": 67.9284,
    "MEAN_ANOMALY": 83.0574,
    "EPHEMERIS_TYPE": 0,
    "CLASSIFICATION_TYPE": "U",
    "NORAD_CAT_ID": 66237,
    "ELEMENT_SET_NO": 999,
    "REV_AT_EPOCH": 304,
    "BSTAR": 0.0,
    "MEAN_MOTION_DOT": -0.01216137,
    "MEAN_MOTION_DDOT": 0.0,
    "TLE_LINE1": "1 66237U 25245D   25315.25002315 -.01216137  00000+0 -71320-2 0  9993",
    "TLE_LINE2": "2 66237  53.1526 120.1083 0000809  67.9284  83.0574 15.80290316  3045",
    "COMMENT": "Grouped by shell and plane from TLE"
  },
  {
    "OBJECT_NAME": "STARLINK-35556",
    "OBJECT_ID": "25245E",
    "EPOCH": "2025-11-11T06:00:02.000160",
    "MEAN_MOTION": 15.80271327,
    "ECCENTRICITY": 0.0001003,
    "INCLINATION": 53.1525,
    "RA_OF_ASC_NODE": 120.1035,
    "ARG_OF_PERICENTER": 66.2215,
    "MEAN_ANOMALY": 87.0773,
    "EPHEMERIS_TYPE": 0,
    "CLASSIFICATION_TYPE": "U",
    "NORAD_CAT_ID": 66238,
    "ELEMENT_SET_NO": 999,
    "REV_AT_EPOCH": 304,
    "BSTAR": 0.0,
    "MEAN_MOTION_DOT": -0.01238918,
    "MEAN_MOTION_DDOT": 0.0,
    "TLE_LINE1": "1 66238U 25245E   25315.25002315 -.01238918  00000+0 -72888-2 0  9995",
    "TLE_LINE2": "2 66238  53.1525 120.1035 0001003  66.2215  87.0773 15.80271327  3041",
    "COMMENT": "Grouped by shell and plane from TLE"
  },
  {
    "OBJECT_NAME": "STARLINK-35554",
    "OBJECT_ID": "25245F",
    "EPOCH": "2025-11-11T06:00:02.000160",
    "MEAN_MOTION": 15.80224261,
    "ECCENTRICITY": 8.91e-05,
    "INCLINATION": 53.1525,
    "RA_OF_ASC_NODE": 120.098,
    "ARG_OF_PERICENTER": 69.1122,
    "MEAN_ANOMALY": 86.8517,
    "EPHEMERIS_TYPE": 0,
    "CLASSIFICATION_TYPE": "U",
    "NORAD_CAT_ID": 66239,
    "ELEMENT_SET_NO": 999,
    "REV_AT_EPOCH": 288,
    "BSTAR": 0.0,
    "MEAN_MOTION_DOT": -0.01274483,
    "MEAN_MOTION_DDOT": 0.0,
    "TLE_LINE1": "1 66239U 25245F   25315.25002315 -.01274483  00000+0 -75432-2 0  9991",
    "TLE_LINE2": "2 66239  53.1525 120.0980 0000891  69.1122  86.8517 15.80224261  2882",
    "COMMENT": "Grouped by shell and plane from TLE"
  },
  {
    "OBJECT_NAME": "STARLINK-35546",
    "OBJECT_ID": "25245G",
    "EPOCH": "2025-11-11T06:00:02.000160",
    "MEAN_MOTION": 15.80188254,
    "ECCENTRICITY": 9.29e-05,
    "INCLINATION": 53.1523,
    "RA_OF_ASC_NODE": 120.0923,
    "ARG_OF_PERICENTER": 73.252,
    "MEAN_ANOMALY": 85.1243,
    "EPHEMERIS_TYPE": 0,
    "CLASSIFICATION_TYPE": "U",
    "NORAD_CAT_ID": 66240,
    "ELEMENT_SET_NO": 999,
    "REV_AT_EPOCH": 304,
    "BSTAR": 0.0,
    "MEAN_MOTION_DOT": -0.01293733,
    "MEAN_MOTION_DDOT": 0.0,
    "TLE_LINE1": "1 66240U 25245G   25315.25002315 -.01293733  00000+0 -76856-2 0  9993",
    "TLE_LINE2": "2 66240  53.1523 120.0923 0000929  73.2520  85.1243 15.80188254  3047",
    "COMMENT": "Grouped by shell and plane from TLE"
  },
  {
    "OBJECT_NAME": "STARLINK-35497",
    "OBJECT_ID": "25245H",
    "EPOCH": "2025-11-11T06:00:02.000160",
    "MEAN_MOTION": 15.80146351,
    "ECCENTRICITY": 0.0001018,
    "INCLINATION": 53.1524,
    "RA_OF_ASC_NODE": 120.0875,
    "ARG_OF_PERICENTER": 67.9571,
    "MEAN_ANOMALY": 92.8205,
    "EPHEMERIS_TYPE": 0,
    "CLASSIFICATION_TYPE": "U",
    "NORAD_CAT_ID": 66241,
    "ELEMENT_SET_NO": 999,
    "REV_AT_EPOCH": 299,
    "BSTAR": 0.0,
    "MEAN_MOTION_DOT": -0.01304793,
    "MEAN_MOTION_DDOT": 0.0,
    "TLE_LINE1": "1 66241U 25245H   25315.25002315 -.01304793  00000+0 -77753-2 0  9990",
    "TLE_LINE2": "2 66241  53.1524 120.0875 0001018  67.9571  92.8205 15.80146351  2999",
    "COMMENT": "Grouped by shell and plane from TLE"
  },
  {
    "OBJECT_NAME": "STARLINK-35480",
    "OBJECT_ID": "25245J",
    "EPOCH": "2025-11-11T06:00:02.000160",
    "MEAN_MOTION": 15.7997162,
    "ECCENTRICITY": 0.00011,
    "INCLINATION": 53.1526,
    "RA_OF_ASC_NODE": 120.0727,
    "ARG_OF_PERICENTER": 68.8172,
    "MEAN_ANOMALY": 99.4236,
    "EPHEMERIS_TYPE": 0,
    "CLASSIFICATION_TYPE": "U",
    "NORAD_CAT_ID": 66242,
    "ELEMENT_SET_NO": 999,
    "REV_AT_EPOCH": 304,
    "BSTAR": 0.0,
    "MEAN_MOTION_DOT": -0.01347807,
    "MEAN_MOTION_DDOT": 0.0,
    "TLE_LINE1": "1 66242U 25245J   25315.25002315 -.01347807  00000+0 -79617-2 0  9995",
    "TLE_LINE2": "2 66242  53.1526 120.0727 0001100  68.8172  99.4236 15.79971620  3044",
    "COMMENT": "Grouped by shell and plane from TLE"
  },
  {
    "OBJECT_NAME": "STARLINK-35495",
    "OBJECT_ID": "25245K",
    "EPOCH": "2025-11-11T06:00:02.000160",
    "MEAN_MOTION": 15.80075283,
    "ECCENTRICITY": 8.23e-05,
    "INCLINATION": 53.1525,
    "RA_OF_ASC_NODE": 120.0828,
    "ARG_OF_PERICENTER": 65.7145,
    "MEAN_ANOMALY": 97.6768,
    "EPHEMERIS_TYPE": 0,
    "CLASSIFICATION_TYPE": "U",
    "NORAD_CAT_ID": 66243,
    "ELEMENT_SET_NO": 999,
    "REV_AT_EPOCH": 304,
    "BSTAR": 0.0,
    "MEAN_MOTION_DOT": -0.013095,
    "MEAN_MOTION_DDOT": 0.0,
    "TLE_LINE1": "1 66243U 25245K   25315.25002315 -.01309500  00000+0 -78338-2 0  9993",
    "TLE_LINE2": "2 66243  53.1525 120.0828 0000823  65.7145  97.6768 15.80075283  3045",
    "COMMENT": "Grouped by shell and plane from TLE"
  },
  {
    "OBJECT_NAME": "STARLINK-35517",
    "OBJECT_ID": "25245L",
    "EPOCH": "2025-11-11T06:00:02.000160",
    "MEAN_MOTION": 15.80051459,
    "ECCENTRICITY": 7.72e-05,
    "INCLINATION": 53.1523,
    "RA_OF_ASC_NODE": 120.077,
    "ARG_OF_PERICENTER": 71.9185,
    "MEAN_ANOMALY": 93.6932,
    "EPHEMERIS_TYPE": 0,
    "CLASSIFICATION_TYPE": "U",
    "NORAD_CAT_ID": 66244,
    "ELEMENT_SET_NO": 999,
    "REV_AT_EPOCH": 283,
    "BSTAR": 0.0,
    "MEAN_MOTION_DOT": -0.01344289,
    "MEAN_MOTION_DDOT": 0.0,
    "TLE_LINE1": "1 66244U 25245L   25315.25002315 -.01344289  00000+0 -79104-2 0  9999",
    "TLE_LINE2": "2 66244  53.1523 120.0770 0000772  71.9185  93.6932 15.80051459  2830",
    "COMMENT": "Grouped by shell and plane from TLE"
  }
]